[{"name":"HAWK-5A","l1":"1 52757U 22057AB  26183.71471473  .00019571  00000+0  32722-3 0  9997","l2":"2 52757  97.6623 343.5718 0004437  24.8200 335.3265 15.51945485228754","cat":"other"},{"name":"HAWK-6B","l1":"1 55324U 23011A   26183.59282301  .00004749  00000+0  20540-3 0  9993","l2":"2 55324  40.4980 262.2103 0002146 166.4516 193.6351 15.23065766190193","cat":"other"},{"name":"HAWK-6C","l1":"1 55326U 23011C   26183.59219966  .00004886  00000+0  21113-3 0  9991","l2":"2 55326  40.4966 259.0503 0002498 145.2091 214.8881 15.23063656190202","cat":"other"},{"name":"HAWK-6A","l1":"1 55327U 23011D   26183.59223536  .00004857  00000+0  20989-3 0  9998","l2":"2 55327  40.4977 260.6761 0002054 144.3661 215.7285 15.23064542190203","cat":"other"},{"name":"HAWK-7A","l1":"1 56191U 23054P   26183.44006705  .00006896  00000+0  25878-3 0  9993","l2":"2 56191  97.2681  70.3898 0002937  20.8380 339.2978 15.27520400179356","cat":"other"},{"name":"HAWK-7B","l1":"1 56193U 23054R   26183.63652466  .00006486  00000+0  24357-3 0  9993","l2":"2 56193  97.2708  68.8505 0002674  40.2087 319.9350 15.27520585179389","cat":"other"},{"name":"HAWK-7C","l1":"1 56200U 23054Y   26183.43988529  .00006792  00000+0  25495-3 0  9996","l2":"2 56200  97.2684  69.4228 0002416  29.6141 330.5235 15.27518091179353","cat":"other"}]